     2.100          NAVIGATION                              RINEX VERSION / TYPE
fic2rin                                 09/08/2016 00:58:24 PGM / RUN BY / DATE
                                                            END OF HEADER
29 16  9  7  4  0  0.0  .651666428894D-03 -.102318153949D-11  .000000000000D+00
     .970000000000D+02  .618750000000D+01  .399016620644D-08 -.711410990838D+00
     .262632966042D-06  .576433027163D-03  .906549394131D-05  .515375638199D+04
     .273600000000D+06  .447034835815D-07  .124680725814D+01 -.428408384323D-07
     .978223405857D+00  .216281250000D+03  .114273670403D+00 -.780425364992D-08
     .171792870148D-09  .100000000000D+01  .191300000000D+04  .000000000000D+00
     .340000000000D+01  .000000000000D+00 -.102445483208D-07  .970000000000D+02
     .266406000000D+06  .400000000000D+01
30 16  9  7  4  0  0.0  .149199739099D-03  .170530256582D-11  .000000000000D+00
     .910000000000D+02  .319062500000D+02  .508092592667D-08  .837499569470D+00
     .162422657013D-05  .239075871650D-02  .399537384510D-05  .515377414322D+04
     .273600000000D+06 -.391155481339D-07 -.837194641752D+00 -.689178705215D-07
     .950874307434D+00  .292375000000D+03  .313441356744D+01 -.853571268955D-08
    -.111433213069D-09  .100000000000D+01  .191300000000D+04  .000000000000D+00
     .240000000000D+01  .000000000000D+00  .372529029846D-08  .910000000000D+02
     .266406000000D+06  .400000000000D+01
31 16  9  7  4  0  0.0  .249352306128D-03 -.204636307899D-11  .000000000000D+00
     .690000000000D+02  .245937500000D+02  .466412285087D-08  .605941484741D+00
     .115856528282D-05  .830689573195D-02  .409223139286D-05  .515354350281D+04
     .273600000000D+06  .156462192535D-06 -.870074636981D+00 -.894069671631D-07
     .969879635037D+00  .303031250000D+03 -.383063725376D+00 -.834106172442D-08
    -.871464871438D-10  .100000000000D+01  .191300000000D+04  .000000000000D+00
     .240000000000D+01  .000000000000D+00 -.135041773319D-07  .690000000000D+02
     .266406000000D+06  .400000000000D+01
12 16  9  7  3 59 44.0  .388421583921D-03  .341060513165D-12  .000000000000D+00
     .350000000000D+02 -.427187500000D+02  .386516099947D-08  .170697548821D+00
    -.225380063057D-05  .604765070602D-02  .761076807976D-05  .515366857719D+04
     .273584000000D+06 -.130385160446D-07  .198105655507D+00  .745058059692D-07
     .990437831163D+00  .246875000000D+03  .789071919350D+00 -.788639992878D-08
    -.322513433979D-09  .100000000000D+01  .191300000000D+04  .000000000000D+00
     .240000000000D+01  .000000000000D+00 -.125728547573D-07  .350000000000D+02
     .268626000000D+06  .400000000000D+01
29 16  9  7  3 59 44.0  .651665031910D-03 -.102318153949D-11  .000000000000D+00
     .200000000000D+01  .618750000000D+01  .399016620644D-08 -.713744056979D+00
     .262632966042D-06  .576435471885D-03  .906549394131D-05  .515375638580D+04
     .273584000000D+06  .447034835815D-07  .124680741028D+01 -.428408384323D-07
     .978223401468D+00  .216281250000D+03  .114273036959D+00 -.780425364992D-08
     .172150027883D-09  .100000000000D+01  .191300000000D+04  .000000000000D+00
     .240000000000D+01  .000000000000D+00 -.102445483208D-07  .200000000000D+01
     .269436000000D+06  .400000000000D+01
28 16  9  7  3 59 44.0  .550178810954D-03  .284217094304D-11  .000000000000D+00
     .300000000000D+01 -.491875000000D+02  .377051419991D-08 -.185852655685D+01
    -.243633985519D-05  .198285453953D-01  .737607479095D-05  .515363077736D+04
     .273584000000D+06  .372529029846D-06  .221738724034D+00  .335276126862D-06
     .989669391017D+00  .251093750000D+03 -.161276691691D+01 -.759031616714D-08
    -.374658463172D-09  .100000000000D+01  .191300000000D+04  .000000000000D+00
     .240000000000D+01  .000000000000D+00 -.107102096081D-07  .300000000000D+01
     .269706000000D+06  .400000000000D+01
12 16  9  7  5 59 44.0  .388423912227D-03  .341060513165D-12  .000000000000D+00
     .360000000000D+02 -.454375000000D+02  .392909223389D-08  .122101998569D+01
    -.237859785557D-05  .604651495814D-02  .722520053387D-05  .515366587639D+04
     .280784000000D+06 -.577419996262D-07  .198048992301D+00  .633299350739D-07
     .990435426125D+00  .256656250000D+03  .788929918281D+00 -.787389940809D-08
    -.335371112410D-09  .100000000000D+01  .191300000000D+04  .000000000000D+00
     .240000000000D+01  .000000000000D+00 -.125728547573D-07  .360000000000D+02
     .273606000000D+06  .400000000000D+01
28 16  9  7  5 59 44.0  .550199300051D-03  .284217094304D-11  .000000000000D+00
     .400000000000D+01 -.480000000000D+02  .406588364609D-08 -.808315834262D+00
    -.242702662945D-05  .198285988299D-01  .754557549953D-05  .515363108444D+04
     .280784000000D+06 -.264495611191D-06  .221681029470D+00  .128522515297D-06
     .989663932870D+00  .252031250000D+03 -.161277455773D+01 -.824284334751D-08
    -.303226916332D-09  .100000000000D+01  .191300000000D+04  .000000000000D+00
     .240000000000D+01  .000000000000D+00 -.107102096081D-07  .400000000000D+01
     .273606000000D+06  .400000000000D+01
29 16  9  7  5 59 44.0  .651657115668D-03 -.102318153949D-11  .000000000000D+00
     .110000000000D+02  .812500000000D+00  .401909598291D-08  .337075992934D+00
    -.409781932831D-07  .576725811698D-03  .882893800735D-05  .515375705910D+04
     .280784000000D+06  .502914190292D-07  .124675120351D+01  .558793544769D-08
     .978224568877D+00  .218156250000D+03  .113579005216D+00 -.780996817367D-08
     .160363822654D-09  .100000000000D+01  .191300000000D+04  .000000000000D+00
     .240000000000D+01  .000000000000D+00 -.102445483208D-07  .110000000000D+02
     .273606000000D+06  .400000000000D+01
 1 16  9  7  6  0  0.0  .330768525600D-04  .136424205266D-11  .000000000000D+00
     .990000000000D+02 -.612500000000D+01  .454197490577D-08  .250740340278D+01
    -.333413481712D-06  .585922889877D-02  .587478280067D-05  .515370170212D+04
     .280800000000D+06 -.391155481339D-07  .224458152984D+01 -.577419996262D-07
     .965124342286D+00  .268625000000D+03  .544103595207D+00 -.811890961375D-08
     .170721396946D-09  .100000000000D+01  .191300000000D+04  .000000000000D+00
     .240000000000D+01  .000000000000D+00  .512227416039D-08  .990000000000D+02
     .273606000000D+06  .400000000000D+01
 2 16  9  7  6  0  0.0  .555976759642D-03 -.466116034659D-11  .000000000000D+00
     .140000000000D+02 -.618750000000D+01  .485663086960D-08  .295072607118D+01
    -.311061739922D-06  .159201861825D-01  .577233731747D-05  .515362673378D+04
     .280800000000D+06  .745058059692D-07  .219684132394D+01 -.188127160072D-06
     .943910845173D+00  .255062500000D+03 -.208822410822D+01 -.802176271004D-08
     .211080220910D-09  .100000000000D+01  .191300000000D+04  .000000000000D+00
     .240000000000D+01  .000000000000D+00 -.204890966415D-07  .140000000000D+02
     .273606000000D+06  .400000000000D+01
 3 16  9  7  6  0  0.0 -.856202095747D-04 -.227373675443D-11  .000000000000D+00
     .770000000000D+02 -.246250000000D+02  .452733143867D-08  .184692137695D+01
    -.149011611938D-05  .160967698321D-03  .867247581482D-05  .515362831688D+04
     .280800000000D+06  .279396772385D-07 -.299711081619D+01  .242143869400D-07
     .959837786445D+00  .209125000000D+03  .631468647432D-01 -.802783439153D-08
    -.187507810453D-09  .100000000000D+01  .191300000000D+04  .000000000000D+00
     .240000000000D+01  .000000000000D+00  .139698386192D-08  .770000000000D+02
     .273606000000D+06  .400000000000D+01
 4 16  9  7  6  0  0.0 -.260635279119D-03 -.227373675443D-12  .000000000000D+00
     .930000000000D+02 -.457812500000D+02  .537379526871D-08 -.529888815219D+00
    -.241957604885D-05  .844015984330D-02  .722520053387D-05  .515367700005D+04
     .280800000000D+06 -.633299350739D-07  .168026554455D+00  .117346644402D-06
     .983357585613D+00  .249718750000D+03  .899940290971D+00 -.802962018020D-08
    -.353228999120D-09  .100000000000D+01  .191300000000D+04  .000000000000D+00
     .485000000000D+01  .630000000000D+02 -.195577740669D-07  .930000000000D+02
     .273606000000D+06  .400000000000D+01
 5 16  9  7  6  0  0.0 -.927778892219D-04  .261479726760D-11  .000000000000D+00
     .580000000000D+02 -.314687500000D+02  .487056002123D-08 -.850987148973D+00
    -.151433050632D-05  .473479868378D-02  .791065394878D-05  .515359006500D+04
     .280800000000D+06  .111758708954D-06 -.301038457412D+01 -.186264514923D-08
     .946874121794D+00  .214562500000D+03  .497958713179D+00 -.824891502899D-08
    -.163935399996D-09  .100000000000D+01  .191300000000D+04  .000000000000D+00
     .240000000000D+01  .000000000000D+00 -.107102096081D-07  .580000000000D+02
     .273606000000D+06  .400000000000D+01
 6 16  9  7  6  0  0.0  .243018846959D-03  .511590769747D-11  .000000000000D+00
     .680000000000D+02 -.643750000000D+01  .449733018900D-08  .290923123958D+01
    -.167638063431D-06  .216862885281D-03  .606290996075D-05  .515375631523D+04
     .280800000000D+06 -.484287738800D-07  .223617136010D+01 -.558793544769D-08
     .964932584447D+00  .264281250000D+03 -.148474319317D+01 -.806283584948D-08
     .189650756858D-09  .100000000000D+01  .191300000000D+04  .000000000000D+00
     .240000000000D+01  .000000000000D+00  .419095158577D-08  .680000000000D+02
     .273606000000D+06  .400000000000D+01
 7 16  9  7  6  0  0.0  .429165083915D-03 -.284217094304D-11  .000000000000D+00
     .105000000000D+03  .390000000000D+02  .486984570576D-08  .182416637087D+01
     .205449759960D-05  .998145388439D-02  .470876693726D-05  .515362988663D+04
     .280800000000D+06 -.212341547012D-06 -.879944709732D+00  .122934579849D-06
     .965071419761D+00  .294625000000D+03 -.263531562729D+01 -.841177895579D-08
     .178578867098D-10  .100000000000D+01  .191300000000D+04  .000000000000D+00
     .240000000000D+01  .000000000000D+00 -.111758708954D-07  .105000000000D+03
     .273606000000D+06  .400000000000D+01
